CTC2_L_00612007-03
1 10062U 25688GC  26075.70049769  .00000000  00000+0  00000-0 0  9999
2 10062  60.0000 180.0000 0000000   0.0000 144.0000  5.31014043    17
CTC2_L_00612007-04
1 10063U 23992JL  26075.70049769  .00000000  00000+0  00000-0 0  9996
2 10063  60.0000 180.0000 0000000   0.0000 180.0000  5.31014043    18
CTC2_L_00612007-05
1 10064U 22985KG  26075.70049769  .00000000  00000+0  00000-0 0  9998
2 10064  60.0000 180.0000 0000000   0.0000 216.0000  5.31014043    19
CTC2_L_00612007-06
1 10065U 24178DB  26075.70049769  .00000000  00000+0  00000-0 0  9995
2 10065  60.0000 180.0000 0000000   0.0000 252.0000  5.31014043    10
CTC2_L_00612007-07
1 10066U 23555XP  26075.70049769  .00000000  00000+0  00000-0 0  9994
2 10066  60.0000 180.0000 0000000   0.0000 288.0000  5.31014043    10
CTC2_L_00612007-08
1 10067U 25089RP  26075.70049769  .00000000  00000+0  00000-0 0  9999
2 10067  60.0000 180.0000 0000000   0.0000 324.0000  5.31014043    12
CTC2_L_00612007-09
1 10068U 23124SR  26075.70049769  .00000000  00000+0  00000-0 0  9998
2 10068  60.0000 180.0000 0000000   0.0000   0.0000  5.31014043    14
CTC2_L_00612007-10
1 10069U 23664UR  26075.70049769  .00000000  00000+0  00000-0 0  9998
2 10069  60.0000 180.0000 0000000   0.0000  36.0000  5.31014043    14
CTC2_L_00612008-01
1 10070U 22526EE  26075.70049769  .00000000  00000+0  00000-0 0  9996
2 10070  60.0000 210.0000 0000000   0.0000  84.0000  5.31014043    13
CTC2_L_00612008-02
1 10071U 22798GB  26075.70049769  .00000000  00000+0  00000-0 0  9998
2 10071  60.0000 210.0000 0000000   0.0000 120.0000  5.31014043    15
CTC2_L_00612008-03
1 10072U 22323BY  26075.70049769  .00000000  00000+0  00000-0 0  9993
2 10072  60.0000 210.0000 0000000   0.0000 156.0000  5.31014043    15
CTC2_L_00612008-04
1 10073U 22473AK  26075.70049769  .00000000  00000+0  00000-0 0  9990
2 10073  60.0000 210.0000 0000000   0.0000 192.0000  5.31014043    16
CTC2_L_00612008-05
1 10074U 26111AO  26075.70049769  .00000000  00000+0  00000-0 0  9994
2 10074  60.0000 210.0000 0000000   0.0000 228.0000  5.31014043    17
CTC2_L_00612008-06
1 10075U 25531MO  26075.70049769  .00000000  00000+0  00000-0 0  9990
2 10075  60.0000 210.0000 0000000   0.0000 264.0000  5.31014043    18
CTC2_L_00612008-07
1 10076U 26612KK  26075.70049769  .00000000  00000+0  00000-0 0  9992
2 10076  60.0000 210.0000 0000000   0.0000 300.0000  5.31014043    10
CTC2_L_00612008-08
1 10077U 25914KW  26075.70049769  .00000000  00000+0  00000-0 0  9997
2 10077  60.0000 210.0000 0000000   0.0000 336.0000  5.31014043    10
CTC2_L_00612008-09
1 10078U 24141NU  26075.70049769  .00000000  00000+0  00000-0 0  9999
2 10078  60.0000 210.0000 0000000   0.0000  12.0000  5.31014043    12
CTC2_L_00612008-10
1 10079U 23090LS  26075.70049769  .00000000  00000+0  00000-0 0  9992
2 10079  60.0000 210.0000 0000000   0.0000  48.0000  5.31014043    12
CTC2_L_00612009-01
1 10080U 25918YG  26075.70049769  .00000000  00000+0  00000-0 0  9995
2 10080  60.0000 240.0000 0000000   0.0000  96.0000  5.31014043    10
CTC2_L_00612009-02
1 10081U 25483ST  26075.70049769  .00000000  00000+0  00000-0 0  9993
2 10081  60.0000 240.0000 0000000   0.0000 132.0000  5.31014043    12
CTC2_L_00612009-03
1 10082U 25741PU  26075.70049769  .00000000  00000+0  00000-0 0  9991
2 10082  60.0000 240.0000 0000000   0.0000 168.0000  5.31014043    12
CTC2_L_00612009-04
1 10083U 26284NR  26075.70049769  .00000000  00000+0  00000-0 0  9995
2 10083  60.0000 240.0000 0000000   0.0000 204.0000  5.31014043    14
CTC2_L_00612009-05
1 10084U 26971QP  26075.70049769  .00000000  00000+0  00000-0 0  9999
2 10084  60.0000 240.0000 0000000   0.0000 240.0000  5.31014043    15
CTC2_L_00612009-06
1 10085U 25605KB  26075.70049769  .00000000  00000+0  00000-0 0  9993
2 10085  60.0000 240.0000 0000000   0.0000 276.0000  5.31014043    15
CTC2_L_00612009-07
1 10086U 25191X   26075.70049769  .00000000  00000+0  00000-0 0  9994
2 10086  60.0000 240.0000 0000000   0.0000 312.0000  5.31014043    17
CTC2_L_00612009-08
1 10087U 25968PH  26075.70049769  .00000000  00000+0  00000-0 0  9997
2 10087  60.0000 240.0000 0000000   0.0000 348.0000  5.31014043    17
CTC2_L_00612009-09
1 10088U 26683PE  26075.70049769  .00000000  00000+0  00000-0 0  9993
2 10088  60.0000 240.0000 0000000   0.0000  24.0000  5.31014043    19
CTC2_L_00612009-10
1 10089U 23995PF  26075.70049769  .00000000  00000+0  00000-0 0  9997
2 10089  60.0000 240.0000 0000000   0.0000  60.0000  5.31014043    10
CTC2_L_00612010-01
1 10090U 22437TQ  26075.70049769  .00000000  00000+0  00000-0 0  9999
2 10090  60.0000 270.0000 0000000   0.0000 108.0000  5.31014043    18
CTC2_L_00612010-02
1 10091U 22295PW  26075.70049769  .00000000  00000+0  00000-0 0  9992
2 10091  60.0000 270.0000 0000000   0.0000 144.0000  5.31014043    19
CTC2_L_00612010-03
1 10092U 24565NE  26075.70049769  .00000000  00000+0  00000-0 0  9995
2 10092  60.0000 270.0000 0000000   0.0000 180.0000  5.31014043    10
CTC2_L_00612010-04
1 10093U 25235VV  26075.70049769  .00000000  00000+0  00000-0 0  9991
2 10093  60.0000 270.0000 0000000   0.0000 216.0000  5.31014043    11
CTC2_L_00612010-05
1 10094U 25680UP  26075.70049769  .00000000  00000+0  00000-0 0  9996
2 10094  60.0000 270.0000 0000000   0.0000 252.0000  5.31014043    12
CTC2_L_00612010-06
1 10095U 26004TL  26075.70049769  .00000000  00000+0  00000-0 0  9998
2 10095  60.0000 270.0000 0000000   0.0000 288.0000  5.31014043    12
CTC2_L_00612010-07
1 10096U 23851IB  26075.70049769  .00000000  00000+0  00000-0 0  9996
2 10096  60.0000 270.0000 0000000   0.0000 324.0000  5.31014043    14
CTC2_L_00612010-08
1 10097U 25924NW  26075.70049769  .00000000  00000+0  00000-0 0  9990
2 10097  60.0000 270.0000 0000000   0.0000   0.0000  5.31014043    16
CTC2_L_00612010-09
1 10098U 24991JT  26075.70049769  .00000000  00000+0  00000-0 0  9994
2 10098  60.0000 270.0000 0000000   0.0000  36.0000  5.31014043    16
CTC2_L_00612010-10
1 10099U 22995QZ  26075.70049769  .00000000  00000+0  00000-0 0  9997
2 10099  60.0000 270.0000 0000000   0.0000  72.0000  5.31014043    17
CTC2_L_00612011-01
1 10100U 23277KZ  26075.70049769  .00000000  00000+0  00000-0 0  9994
2 10100  60.0000 300.0000 0000000   0.0000 120.0000  5.31014043    18
CTC2_L_00612011-02
1 10101U 22736LU  26075.70049769  .00000000  00000+0  00000-0 0  9994
2 10101  60.0000 300.0000 0000000   0.0000 156.0000  5.31014043    18
CTC2_L_00612011-03
1 10102U 22944FB  26075.70049769  .00000000  00000+0  00000-0 0  9996
2 10102  60.0000 300.0000 0000000   0.0000 192.0000  5.31014043    19
CTC2_L_00612011-04
1 10103U 24793GO  26075.70049769  .00000000  00000+0  00000-0 0  9991
2 10103  60.0000 300.0000 0000000   0.0000 228.0000  5.31014043    10
CTC2_L_00612011-05
1 10104U 24056PL  26075.70049769  .00000000  00000+0  00000-0 0  9994
2 10104  60.0000 300.0000 0000000   0.0000 264.0000  5.31014043    11
CTC2_L_00612011-06
1 10105U 23014XM  26075.70049769  .00000000  00000+0  00000-0 0  9998
2 10105  60.0000 300.0000 0000000   0.0000 300.0000  5.31014043    13
CTC2_L_00612011-07
1 10106U 22148KP  26075.70049769  .00000000  00000+0  00000-0 0  9996
2 10106  60.0000 300.0000 0000000   0.0000 336.0000  5.31014043    13
CTC2_L_00612011-08
1 10107U 26211OH  26075.70049769  .00000000  00000+0  00000-0 0  9992
2 10107  60.0000 300.0000 0000000   0.0000  12.0000  5.31014043    15
CTC2_L_00612011-09
1 10108U 26771ZH  26075.70049769  .00000000  00000+0  00000-0 0  9994
2 10108  60.0000 300.0000 0000000   0.0000  48.0000  5.31014043    15
CTC2_L_00612011-10
1 10109U 24629MA  26075.70049769  .00000000  00000+0  00000-0 0  9995
2 10109  60.0000 300.0000 0000000   0.0000  84.0000  5.31014043    16
CTC2_L_00612012-01
1 10110U 23491MS  26075.70049769  .00000000  00000+0  00000-0 0  9993
2 10110  60.0000 330.0000 0000000   0.0000 132.0000  5.31014043    15
CTC2_L_00612012-02
1 10111U 25879JY  26075.70049769  .00000000  00000+0  00000-0 0  9996
2 10111  60.0000 330.0000 0000000   0.0000 168.0000  5.31014043    15
CTC2_L_00612012-03
1 10112U 26312NR  26075.70049769  .00000000  00000+0  00000-0 0  9990
2 10112  60.0000 330.0000 0000000   0.0000 204.0000  5.31014043    17
CTC2_L_00612012-04
1 10113U 26953MF  26075.70049769  .00000000  00000+0  00000-0 0  9992
2 10113  60.0000 330.0000 0000000   0.0000 240.0000  5.31014043    18
CTC2_L_00612012-05
1 10114U 23697MG  26075.70049769  .00000000  00000+0  00000-0 0  9995
2 10114  60.0000 330.0000 0000000   0.0000 276.0000  5.31014043    18
CTC2_L_00612012-06
1 10115U 23060GB  26075.70049769  .00000000  00000+0  00000-0 0  9990
2 10115  60.0000 330.0000 0000000   0.0000 312.0000  5.31014043    10
CTC2_L_00612012-07
1 10116U 25865SR  26075.70049769  .00000000  00000+0  00000-0 0  9996
2 10116  60.0000 330.0000 0000000   0.0000 348.0000  5.31014043    10
CTC2_L_00612012-08
1 10117U 23654XL  26075.70049769  .00000000  00000+0  00000-0 0  9991
2 10117  60.0000 330.0000 0000000   0.0000  24.0000  5.31014043    12
CTC2_L_00612012-09
1 10118U 24804LU  26075.70049769  .00000000  00000+0  00000-0 0  9990
2 10118  60.0000 330.0000 0000000   0.0000  60.0000  5.31014043    13
CTC2_L_00612012-10
1 10119U 26180SG  26075.70049769  .00000000  00000+0  00000-0 0  9990
2 10119  60.0000 330.0000 0000000   0.0000  96.0000  5.31014043    13
